QZS-1R                  
1 49336U 21096A   24032.51964410 -.00000274  00000+0  00000+0 0  9996
2 49336  35.6619  92.6162 0761111 272.1383  83.2615  1.00240429  8326
